GLOBALSTAR M024         
1 25883U 99043A   24287.33565354 -.00000119  00000+0 -19315-2 0  9991
2 25883  52.0001 217.6043 0002123  47.3342 128.7458 11.10160869 87441
GLOBALSTAR M027         
1 25884U 99043B   24287.30637359 -.00000083  00000+0 -74182-3 0  9998
2 25884  52.0212 288.6598 0021271 313.3187  46.5832 11.04370171113969
GLOBALSTAR M054         
1 25885U 99043C   24287.85224531 -.00000052  00000+0  50118-3 0  9991
2 25885  52.0118  96.0763 0006814 115.2248  26.3395 11.39205211 91306
GLOBALSTAR M053         
1 25886U 99043D   24287.47611021 -.00000070  00000+0 -53251-4 0  9997
2 25886  52.0019  30.3847 0003459  34.7955  47.4876 11.27659249 91616
GLOBALSTAR M058         
1 25907U 99049A   24287.52021468 -.00000013  00000+0  96319-3 0  9990
2 25907  51.9958  47.8321 0002504 145.8477 214.2519 11.93185259512099
GLOBALSTAR M050         
1 25908U 99049B   24287.53268924 -.00000121  00000+0 -36928-3 0  9993
2 25908  51.9987  73.9010 0008245 257.9397 191.4862 12.07441290123126
GLOBALSTAR M033         
1 25909U 99049C   24287.47465479  .00000078  00000+0  16289-2 0  9997
2 25909  51.9925 322.9421 0013061 117.0411 243.1771 12.20286333505620
GLOBALSTAR M055         
1 25910U 99049D   24287.83371265 -.00000053  00000+0  35204-3 0  9991
2 25910  52.0046 344.6678 0006854 342.8075  17.2543 12.29411136138202
